{
  "type": "FeatureCollection",
  "features": [
    {
      "type": "Feature",
      "properties": {
        "norad_id": 66648,
        "name": "COSMOS 2598 (RODNIK-S 23)",
        "group": "last-30-days",
        "lat": -82.00388596424848,
        "lon": -144.39354226612042,
        "alt_km": 1495.4929234814972,
        "timestamp": "2025-12-14T16:47:39.437662+00:00",
        "meta_object_name": "COSMOS 2598 (RODNIK-S 23)",
        "meta_object_id": "2025-273B",
        "meta_epoch": "2025-12-13T21:56:55.645152",
        "meta_mean_motion": 12.4323336,
        "meta_eccentricity": 0.0008,
        "meta_inclination": 82.5023,
        "meta_ra_of_asc_node": 285.7186,
        "meta_arg_of_pericenter": 234.2018,
        "meta_mean_anomaly": 125.8319,
        "meta_ephemeris_type": 0,
        "meta_classification_type": "U",
        "meta_norad_cat_id": 66648,
        "meta_element_set_no": 999,
        "meta_rev_at_epoch": 228,
        "meta_bstar": -5.3457313e-05,
        "meta_mean_motion_dot": 2e-08,
        "meta_mean_motion_ddot": 0,
        "tle_line1": "1 66648U 25273B   25347.91453293  .00000002  00000+0 -53457-4 0  9996",
        "tle_line2": "2 66648  82.5023 285.7186 0008000 234.2018 125.8319 12.43233360  2285"
      },
      "geometry": {
        "type": "Point",
        "coordinates": [
          -144.39354226612042,
          -82.00388596424848
        ]
      }
    },
    {
      "type": "Feature",
      "properties": {
        "norad_id": 66649,
        "name": "COSMOS 2599 (RODNIK-S 24)",
        "group": "last-30-days",
        "lat": -23.5109571762152,
        "lon": 108.53555278853892,
        "alt_km": 1505.3047312181034,
        "timestamp": "2025-12-14T16:47:39.437674+00:00",
        "meta_object_name": "COSMOS 2599 (RODNIK-S 24)",
        "meta_object_id": "2025-273C",
        "meta_epoch": "2025-12-13T22:17:17.420640",
        "meta_mean_motion": 12.41150946,
        "meta_eccentricity": 0.00063149,
        "meta_inclination": 82.5045,
        "meta_ra_of_asc_node": 285.73,
        "meta_arg_of_pericenter": 275.8305,
        "meta_mean_anomaly": 84.2054,
        "meta_ephemeris_type": 0,
        "meta_classification_type": "U",
        "meta_norad_cat_id": 66649,
        "meta_element_set_no": 999,
        "meta_rev_at_epoch": 228,
        "meta_bstar": 2.0870224e-05,
        "meta_mean_motion_dot": 1.3e-07,
        "meta_mean_motion_ddot": 0,
        "tle_line1": "1 66649U 25273C   25347.92867385  .00000013  00000+0  20870-4 0  9993",
        "tle_line2": "2 66649  82.5045 285.7300 0006314 275.8305  84.2054 12.41150946  2284"
      },
      "geometry": {
        "type": "Point",
        "coordinates": [
          108.53555278853892,
          -23.5109571762152
        ]
      }
    },
    {
      "type": "Feature",
      "properties": {
        "norad_id": 66650,
        "name": "BEE-1000",
        "group": "last-30-days",
        "lat": 10.569321235609618,
        "lon": -85.60270556286466,
        "alt_km": 598.5716941988176,
        "timestamp": "2025-12-14T16:47:39.437685+00:00",
        "meta_object_name": "BEE-1000",
        "meta_object_id": "2025-274A",
        "meta_epoch": "2025-12-13T18:12:27.113760",
        "meta_mean_motion": 14.91668016,
        "meta_eccentricity": 0.00103834,
        "meta_inclination": 97.7388,
        "meta_ra_of_asc_node": 274.9276,
        "meta_arg_of_pericenter": 247.5162,
        "meta_mean_anomaly": 112.4958,
        "meta_ephemeris_type": 0,
        "meta_classification_type": "U",
        "meta_norad_cat_id": 66650,
        "meta_element_set_no": 999,
        "meta_rev_at_epoch": 255,
        "meta_bstar": 0.00027707231,
        "meta_mean_motion_dot": 2.732e-05,
        "meta_mean_motion_ddot": 0,
        "tle_line1": "1 66650U 25274A   25347.75864715  .00002732  00000+0  27707-3 0  9996",
        "tle_line2": "2 66650  97.7388 274.9276 0010383 247.5162 112.4958 14.91668016  2550"
      },
      "geometry": {
        "type": "Point",
        "coordinates": [
          -85.60270556286466,
          10.569321235609618
        ]
      }
    },
    {
      "type": "Feature",
      "properties": {
        "norad_id": 66651,
        "name": "2025-274B",
        "group": "last-30-days",
        "lat": 16.48662020719498,
        "lon": -86.4536139596925,
        "alt_km": 597.9983940812035,
        "timestamp": "2025-12-14T16:47:39.437695+00:00",
        "meta_object_name": "2025-274B",
        "meta_object_id": "2025-274B",
        "meta_epoch": "2025-12-13T18:10:58.776672",
        "meta_mean_motion": 14.91811097,
        "meta_eccentricity": 0.00105894,
        "meta_inclination": 97.7383,
        "meta_ra_of_asc_node": 274.928,
        "meta_arg_of_pericenter": 246.3969,
        "meta_mean_anomaly": 113.6138,
        "meta_ephemeris_type": 0,
        "meta_classification_type": "U",
        "meta_norad_cat_id": 66651,
        "meta_element_set_no": 999,
        "meta_rev_at_epoch": 255,
        "meta_bstar": 0.00053262876,
        "meta_mean_motion_dot": 5.325e-05,
        "meta_mean_motion_ddot": 0,
        "tle_line1": "1 66651U 25274B   25347.75762473  .00005325  00000+0  53263-3 0  9992",
        "tle_line2": "2 66651  97.7383 274.9280 0010589 246.3969 113.6138 14.91811097  2553"
      },
      "geometry": {
        "type": "Point",
        "coordinates": [
          -86.4536139596925,
          16.48662020719498
        ]
      }
    },
    {
      "type": "Feature",
      "properties": {
        "norad_id": 66652,
        "name": "2025-274C",
        "group": "last-30-days",
        "lat": 24.80160978346097,
        "lon": -87.74545555954334,
        "alt_km": 596.3538900472722,
        "timestamp": "2025-12-14T16:47:39.437705+00:00",
        "meta_object_name": "2025-274C",
        "meta_object_id": "2025-274C",
        "meta_epoch": "2025-12-13T21:21:58.453632",
        "meta_mean_motion": 14.91909999,
        "meta_eccentricity": 0.00102676,
        "meta_inclination": 97.7389,
        "meta_ra_of_asc_node": 275.0626,
        "meta_arg_of_pericenter": 252.9787,
        "meta_mean_anomaly": 107.0307,
        "meta_ephemeris_type": 0,
        "meta_classification_type": "U",
        "meta_norad_cat_id": 66652,
        "meta_element_set_no": 999,
        "meta_rev_at_epoch": 257,
        "meta_bstar": 0.00041146127,
        "meta_mean_motion_dot": 4.11e-05,
        "meta_mean_motion_ddot": 0,
        "tle_line1": "1 66652U 25274C   25347.89025988  .00004110  00000+0  41146-3 0  9999",
        "tle_line2": "2 66652  97.7389 275.0626 0010267 252.9787 107.0307 14.91909999  2576"
      },
      "geometry": {
        "type": "Point",
        "coordinates": [
          -87.74545555954334,
          24.80160978346097
        ]
      }
    },
    {
      "type": "Feature",
      "properties": {
        "norad_id": 66653,
        "name": "2025-274D",
        "group": "last-30-days",
        "lat": 25.233728755621254,
        "lon": -87.81716292679639,
        "alt_km": 597.0984139266038,
        "timestamp": "2025-12-14T16:47:39.437715+00:00",
        "meta_object_name": "2025-274D",
        "meta_object_id": "2025-274D",
        "meta_epoch": "2025-12-13T18:08:42.027072",
        "meta_mean_motion": 14.91915478,
        "meta_eccentricity": 0.00111335,
        "meta_inclination": 97.7386,
        "meta_ra_of_asc_node": 274.9307,
        "meta_arg_of_pericenter": 249.4426,
        "meta_mean_anomaly": 110.5598,
        "meta_ephemeris_type": 0,
        "meta_classification_type": "U",
        "meta_norad_cat_id": 66653,
        "meta_element_set_no": 999,
        "meta_rev_at_epoch": 255,
        "meta_bstar": 0.00039328747,
        "meta_mean_motion_dot": 3.927e-05,
        "meta_mean_motion_ddot": 0,
        "tle_line1": "1 66653U 25274D   25347.75604198  .00003927  00000+0  39329-3 0  9996",
        "tle_line2": "2 66653  97.7386 274.9307 0011133 249.4426 110.5598 14.91915478  2550"
      },
      "geometry": {
        "type": "Point",
        "coordinates": [
          -87.81716292679639,
          25.233728755621254
        ]
      }
    },
    {
      "type": "Feature",
      "properties": {
        "norad_id": 66654,
        "name": "JACK E",
        "group": "last-30-days",
        "lat": 36.034585575616326,
        "lon": -89.81501708348641,
        "alt_km": 595.8571106364761,
        "timestamp": "2025-12-14T16:47:39.437727+00:00",
        "meta_object_name": "JACK E",
        "meta_object_id": "2025-274E",
        "meta_epoch": "2025-12-12T17:57:23.787072",
        "meta_mean_motion": 14.92083468,
        "meta_eccentricity": 0.00117279,
        "meta_inclination": 97.7387,
        "meta_ra_of_asc_node": 273.9456,
        "meta_arg_of_pericenter": 255.0239,
        "meta_mean_anomaly": 104.9682,
        "meta_ephemeris_type": 0,
        "meta_classification_type": "U",
        "meta_norad_cat_id": 66654,
        "meta_element_set_no": 999,
        "meta_rev_at_epoch": 240,
        "meta_bstar": 0.00049140414,
        "meta_mean_motion_dot": 4.943e-05,
        "meta_mean_motion_ddot": 0,
        "tle_line1": "1 66654U 25274E   25346.74819198  .00004943  00000+0  49140-3 0  9994",
        "tle_line2": "2 66654  97.7387 273.9456 0011727 255.0239 104.9682 14.92083468  2401"
      },
      "geometry": {
        "type": "Point",
        "coordinates": [
          -89.81501708348641,
          36.034585575616326
        ]
      }
    }
  ]
}